{"type": "FeatureCollection", "features": [ {"type": "Feature", "properties": {"norad_id": 30295, "name": "FENGYUN 1C DEB", "group": "fengyun-1c-debris", "lat": 53.92383805149007, "lon": -159.43867634869707, "alt_km": 751.8359186340631, "timestamp": "2025-12-12T05:47:29.046229+00:00", "meta": {"OBJECT_NAME": "FENGYUN 1C DEB", "OBJECT_ID": "1999-025ZG", "EPOCH": "2025-12-12T00:26:36.603744", "MEAN_MOTION": 14.25043182, "ECCENTRICITY": 0.00945262, "INCLINATION": 98.5083, "RA_OF_ASC_NODE": 8.4887, "ARG_OF_PERICENTER": 84.5712, "MEAN_ANOMALY": 337.3495, "EPHEMERIS_TYPE": 0, "CLASSIFICATION_TYPE": "U", "NORAD_CAT_ID": 30295, "ELEMENT_SET_NO": 999, "REV_AT_EPOCH": 98166, "BSTAR": 0.00023984986, "MEAN_MOTION_DOT": 5.47e-06, "MEAN_MOTION_DDOT": 0}, "tle": {"line1": "1 30295U 99025ZG  25346.01847921  .00000547  00000+0  23985-3 0  9991", "line2": "2 30295  98.5083   8.4887 0094526  84.5712 337.3495 14.25043182981666"}}, "geometry": {"type": "Point", "coordinates": [-159.43867634869707, 53.92383805149007]}}, {"type": "Feature", "properties": {"norad_id": 30297, "name": "FENGYUN 1C DEB", "group": "fengyun-1c-debris", "lat": 65.85013861581548, "lon": -82.4448210093475, "alt_km": 629.8636839360688, "timestamp": "2025-12-12T05:47:29.046242+00:00", "meta": {"OBJECT_NAME": "FENGYUN 1C DEB", "OBJECT_ID": "1999-025ZJ", "EPOCH": "2025-12-11T15:05:46.779360", "MEAN_MOTION": 14.21776983, "ECCENTRICITY": 0.03796093, "INCLINATION": 98.8115, "RA_OF_ASC_NODE": 297.182, "ARG_OF_PERICENTER": 118.8313, "MEAN_ANOMALY": 59.6777, "EPHEMERIS_TYPE": 0, "CLASSIFICATION_TYPE": "U", "NORAD_CAT_ID": 30297, "ELEMENT_SET_NO": 999, "REV_AT_EPOCH": 95136, "BSTAR": 0.0019007438, "MEAN_MOTION_DOT": 8.726e-05, "MEAN_MOTION_DDOT": 0}, "tle": {"line1": "1 30297U 99025ZJ  25345.62901365  .00008726  00000+0  19007-2 0  9998", "line2": "2 30297  98.8115 297.1820 0379609 118.8313  59.6777 14.21776983951366"}}, "geometry": {"type": "Point", "coordinates": [-82.4448210093475, 65.85013861581548]}}, {"type": "Feature", "properties": {"norad_id": 30298, "name": "FENGYUN 1C DEB", "group": "fengyun-1c-debris", "lat": 41.53693849972474, "lon": -94.75704507331334, "alt_km": 787.5083259301136, "timestamp": "2025-12-12T05:47:29.046253+00:00", "meta": {"OBJECT_NAME": "FENGYUN 1C DEB", "OBJECT_ID": "1999-025ZK", "EPOCH": "2025-12-11T18:01:01.261056", "MEAN_MOTION": 14.19924611, "ECCENTRICITY": 0.0048643, "INCLINATION": 99.0011, "RA_OF_ASC_NODE": 76.6723, "ARG_OF_PERICENTER": 130.8119, "MEAN_ANOMALY": 20.4367, "EPHEMERIS_TYPE": 0, "CLASSIFICATION_TYPE": "U", "NORAD_CAT_ID": 30298, "ELEMENT_SET_NO": 999, "REV_AT_EPOCH": 96820, "BSTAR": 0.003053116, "MEAN_MOTION_DOT": 6.521e-05, "MEAN_MOTION_DDOT": 0}, "tle": {"line1": "1 30298U 99025ZK  25345.75070904  .00006521  00000+0  30531-2 0  9995", "line2": "2 30298  99.0011  76.6723 0048643 130.8119  20.4367 14.19924611968208"}}, "geometry": {"type": "Point", "coordinates": [-94.75704507331334, 41.53693849972474]}}, {"type": "Feature", "properties": {"norad_id": 30299, "name": "FENGYUN 1C DEB", "group": "fengyun-1c-debris", "lat": 18.878830918959434, "lon": 55.327170044037146, "alt_km": 793.4765829766466, "timestamp": "2025-12-12T05:47:29.046263+00:00", "meta": {"OBJECT_NAME": "FENGYUN 1C DEB", "OBJECT_ID": "1999-025ZL", "EPOCH": "2025-12-11T16:46:54.103584", "MEAN_MOTION": 14.07740625, "ECCENTRICITY": 0.01032996, "INCLINATION": 99.0934, "RA_OF_ASC_NODE": 57.921, "ARG_OF_PERICENTER": 10.8858, "MEAN_ANOMALY": 142.5145, "EPHEMERIS_TYPE": 0, "CLASSIFICATION_TYPE": "U", "NORAD_CAT_ID": 30299, "ELEMENT_SET_NO": 999, "REV_AT_EPOCH": 96275, "BSTAR": 0.0019351459, "MEAN_MOTION_DOT": 3.394e-05, "MEAN_MOTION_DDOT": 0}, "tle": {"line1": "1 30299U 99025ZL  25345.69923731  .00003394  00000+0  19351-2 0  9996", "line2": "2 30299  99.0934  57.9210 0103299  10.8858 142.5145 14.07740625962754"}}, "geometry": {"type": "Point", "coordinates": [55.327170044037146, 18.878830918959434]}}, {"type": "Feature", "properties": {"norad_id": 30300, "name": "FENGYUN 1C DEB", "group": "fengyun-1c-debris", "lat": 22.65822217870214, "lon": -120.62955481449262, "alt_km": 841.9261330600684, "timestamp": "2025-12-12T05:47:29.046273+00:00", "meta": {"OBJECT_NAME": "FENGYUN 1C DEB", "OBJECT_ID": "1999-025ZM", "EPOCH": "2025-12-11T04:09:37.364832", "MEAN_MOTION": 14.26809981, "ECCENTRICITY": 0.00742411, "INCLINATION": 99.0367, "RA_OF_ASC_NODE": 54.4588, "ARG_OF_PERICENTER": 298.8999, "MEAN_ANOMALY": 136.0565, "EPHEMERIS_TYPE": 0, "CLASSIFICATION_TYPE": "U", "NORAD_CAT_ID": 30300, "ELEMENT_SET_NO": 999, "REV_AT_EPOCH": 96962, "BSTAR": 0.0031839683, "MEAN_MOTION_DOT": 7.907e-05, "MEAN_MOTION_DDOT": 0}, "tle": {"line1": "1 30300U 99025ZM  25345.17334913  .00007907  00000+0  31840-2 0  9991", "line2": "2 30300  99.0367  54.4588 0074241 298.8999 136.0565 14.26809981969624"}}, "geometry": {"type": "Point", "coordinates": [-120.62955481449262, 22.65822217870214]}}, {"type": "Feature", "properties": {"norad_id": 30301, "name": "FENGYUN 1C DEB", "group": "fengyun-1c-debris", "lat": -81.35014068993534, "lon": -130.03863958723042, "alt_km": 677.6762706648497, "timestamp": "2025-12-12T05:47:29.046283+00:00", "meta": {"OBJECT_NAME": "FENGYUN 1C DEB", "OBJECT_ID": "1999-025ZN", "EPOCH": "2025-12-11T08:59:43.539936", "MEAN_MOTION": 14.52924639, "ECCENTRICITY": 0.0068879, "INCLINATION": 98.6354, "RA_OF_ASC_NODE": 136.4543, "ARG_OF_PERICENTER": 293.5084, "MEAN_ANOMALY": 126.6769, "EPHEMERIS_TYPE": 0, "CLASSIFICATION_TYPE": "U", "NORAD_CAT_ID": 30301, "ELEMENT_SET_NO": 999, "REV_AT_EPOCH": 97197, "BSTAR": 0.0084422894, "MEAN_MOTION_DOT": 0.00036013, "MEAN_MOTION_DDOT": 0}, "tle": {"line1": "1 30301U 99025ZN  25345.37480949  .00036013  00000+0  84423-2 0  9990", "line2": "2 30301  98.6354 136.4543 0068879 293.5084 126.6769 14.52924639971974"}}, "geometry": {"type": "Point", "coordinates": [-130.03863958723042, -81.35014068993534]}}, {"type": "Feature", "properties": {"norad_id": 30302, "name": "FENGYUN 1C DEB", "group": "fengyun-1c-debris", "lat": 81.13086740797716, "lon": 179.30391965282075, "alt_km": 777.7819636543418, "timestamp": "2025-12-12T05:47:29.046293+00:00", "meta": {"OBJECT_NAME": "FENGYUN 1C DEB", "OBJECT_ID": "1999-025ZP", "EPOCH": "2025-12-09T04:17:27.898368", "MEAN_MOTION": 14.12766745, "ECCENTRICITY": 0.01043694, "INCLINATION": 98.5525, "RA_OF_ASC_NODE": 251.0366, "ARG_OF_PERICENTER": 127.8349, "MEAN_ANOMALY": 233.2326, "EPHEMERIS_TYPE": 0, "CLASSIFICATION_TYPE": "U", "NORAD_CAT_ID": 30302, "ELEMENT_SET_NO": 999, "REV_AT_EPOCH": 95993, "BSTAR": 0.0023618631, "MEAN_MOTION_DOT": 4.579e-05, "MEAN_MOTION_DDOT": 0}, "tle": {"line1": "1 30302U 99025ZP  25343.17879512  .00004579  00000+0  23619-2 0  9997", "line2": "2 30302  98.5525 251.0366 0104369 127.8349 233.2326 14.12766745959933"}}, "geometry": {"type": "Point", "coordinates": [179.30391965282075, 81.13086740797716]}}, {"type": "Feature", "properties": {"norad_id": 30303, "name": "FENGYUN 1C DEB", "group": "fengyun-1c-debris", "lat": 9.924454445833817, "lon": 61.93691841481489, "alt_km": 803.2834522058574, "timestamp": "2025-12-12T05:47:29.046303+00:00", "meta": {"OBJECT_NAME": "FENGYUN 1C DEB", "OBJECT_ID": "1999-025ZQ", "EPOCH": "2025-12-11T04:28:53.464224", "MEAN_MOTION": 14.25796934, "ECCENTRICITY": 0.00760818, "INCLINATION": 99.0199, "RA_OF_ASC_NODE": 62.4447, "ARG_OF_PERICENTER": 286.9647, "MEAN_ANOMALY": 72.3203, "EPHEMERIS_TYPE": 0, "CLASSIFICATION_TYPE": "U", "NORAD_CAT_ID": 30303, "ELEMENT_SET_NO": 999, "REV_AT_EPOCH": 97013, "BSTAR": 0.0035746311, "MEAN_MOTION_DOT": 8.721e-05, "MEAN_MOTION_DDOT": 0}, "tle": {"line1": "1 30303U 99025ZQ  25345.18672991  .00008721  00000+0  35746-2 0  9990", "line2": "2 30303  99.0199  62.4447 0076081 286.9647  72.3203 14.25796934970136"}}, "geometry": {"type": "Point", "coordinates": [61.93691841481489, 9.924454445833817]}}, {"type": "Feature", "properties": {"norad_id": 30304, "name": "FENGYUN 1C DEB", "group": "fengyun-1c-debris", "lat": -6.081100656836835, "lon": -122.30585493141258, "alt_km": 882.1459885284839, "timestamp": "2025-12-12T05:47:29.046313+00:00", "meta": {"OBJECT_NAME": "FENGYUN 1C DEB", "OBJECT_ID": "1999-025ZR", "EPOCH": "2025-12-11T15:20:57.929568", "MEAN_MOTION": 14.15485218, "ECCENTRICITY": 0.00738379, "INCLINATION": 99.0325, "RA_OF_ASC_NODE": 58.0557, "ARG_OF_PERICENTER": 52.2194, "MEAN_ANOMALY": 308.5636, "EPHEMERIS_TYPE": 0, "CLASSIFICATION_TYPE": "U", "NORAD_CAT_ID": 30304, "ELEMENT_SET_NO": 999, "REV_AT_EPOCH": 96803, "BSTAR": 0.0021118945, "MEAN_MOTION_DOT": 4.192e-05, "MEAN_MOTION_DDOT": 0}, "tle": {"line1": "1 30304U 99025ZR  25345.63955937  .00004192  00000+0  21119-2 0  9992", "line2": "2 30304  99.0325  58.0557 0073837  52.2194 308.5636 14.15485218968037"}}, "geometry": {"type": "Point", "coordinates": [-122.30585493141258, -6.081100656836835]}}, {"type": "Feature", "properties": {"norad_id": 30305, "name": "FENGYUN 1C DEB", "group": "fengyun-1c-debris", "lat": 9.598738907492194, "lon": -75.16565893818228, "alt_km": 1039.940610103059, "timestamp": "2025-12-12T05:47:29.046323+00:00", "meta": {"OBJECT_NAME": "FENGYUN 1C DEB", "OBJECT_ID": "1999-025ZS", "EPOCH": "2025-12-11T14:42:13.756608", "MEAN_MOTION": 13.60229063, "ECCENTRICITY": 0.02657091, "INCLINATION": 98.5871, "RA_OF_ASC_NODE": 285.746, "ARG_OF_PERICENTER": 104.0262, "MEAN_ANOMALY": 72.0983, "EPHEMERIS_TYPE": 0, "CLASSIFICATION_TYPE": "U", "NORAD_CAT_ID": 30305, "ELEMENT_SET_NO": 999, "REV_AT_EPOCH": 93758, "BSTAR": 0.00037809374, "MEAN_MOTION_DOT": 3.23e-06, "MEAN_MOTION_DDOT": 0}, "tle": {"line1": "1 30305U 99025ZS  25345.61265922  .00000323  00000+0  37809-3 0  9995", "line2": "2 30305  98.5871 285.7460 0265709 104.0262  72.0983 13.60229063937580"}}, "geometry": {"type": "Point", "coordinates": [-75.16565893818228, 9.598738907492194]}}]}